DUPLEX                  
1 66906U 98067XS  26093.16810926  .00043515  00000+0  57537-3 0  9997
2 66906  51.6284 306.8678 0003125 227.1733 132.8996 15.57885529 18944
ISS OBJECT XT           
1 66907U 98067XT  26093.28441295  .00361691  00000+0  18784-2 0  9998
2 66907  51.6220 299.3474 0006938 241.0922 118.9383 15.79389654 19055
ISS OBJECT XU           
1 66908U 98067XU  26093.27963861  .00376814  00000+0  19242-2 0  9999
2 66908  51.6221 299.3108 0007095 240.6488 119.3805 15.79720595 19055
SILVERSAT               
1 66909U 98067XV  26092.58307897  .00490335  00000+0  18699-2 0  9994
2 66909  51.6187 301.3924 0008484 244.3474 115.6654 15.85656241 18969
ISS OBJECT XW           
1 66910U 98067XW  26093.29727467  .00303275  00000+0  17271-2 0  9995
2 66910  51.6203 299.4256 0007290 236.8734 123.1567 15.77493204 19051
ISS OBJECT XX           
1 66911U 98067XX  26092.94054922  .01110416  58672-3  27185-2 0  9997
2 66911  51.6159 297.7328 0010664 251.8408 108.1439 15.95513790 19039
ISS OBJECT XY           
1 66912U 98067XY  26093.27475158  .00163051  00000+0  13566-2 0  9991
2 66912  51.6253 302.3137 0004795 234.0576 125.9976 15.69079416 19006
KNACKSAT-2              
1 67683U 98067XZ  26092.92528466  .00067722  00000+0  10267-2 0  9992
2 67683  51.6310 311.2469 0010421 275.3642  84.6159 15.53933498  8552
CORAL                   
1 67684U 98067YA  26092.97119205  .00146011  00000+0  18271-2 0  9997
2 67684  51.6286 310.0532 0013373 265.0050  94.9416 15.58700862  8575
GXIBA-1                 
1 67685U 98067YB  26092.97769536  .00072331  00000+0  10703-2 0  9991
2 67685  51.6304 310.8473 0012340 271.8778  88.0799 15.54544320  8562
UITMSAT-2               
1 67686U 98067YC  26092.63851904  .00069503  00000+0  99291-3 0  9993
2 67686  51.6305 312.3353 0009377 244.7057 115.2963 15.55557558  8512
HMU-SAT2                
1 67687U 98067YD  26092.91918496  .00072798  00000+0  10898-2 0  9990
2 67687  51.6311 311.2095 0008878 248.0698 111.9350 15.54267047  8472
LEOPARD                 
1 67688U 98067YE  26093.03217652  .00084376  00000+0  12198-2 0  9991
2 67688  51.6305 310.4638 0009181 245.8702 114.1330 15.55151529  8492
CREW DRAGON 12          
1 67796U 26031A   26093.10136821  .00012012  00000+0  22784-3 0  9990
2 67796  51.6327 311.6710 0006236 265.7481  94.2795 15.48735493560084
PROGRESS-MS 33          
1 68319U 26058A   26093.10136821  .00012012  00000+0  22784-3 0  9991
2 68319  51.6327 311.6710 0006236 265.7481  94.2795 15.48735493  1255
