[{"OBJECT_NAME":"DUPLEX","OBJECT_ID":"1998-067XS","EPOCH":"2026-04-03T04:02:04.640064","MEAN_MOTION":15.57885529,"ECCENTRICITY":0.00031257,"INCLINATION":51.6284,"RA_OF_ASC_NODE":306.8678,"ARG_OF_PERICENTER":227.1733,"MEAN_ANOMALY":132.8996,"EPHEMERIS_TYPE":0,"CLASSIFICATION_TYPE":"U","NORAD_CAT_ID":66906,"ELEMENT_SET_NO":999,"REV_AT_EPOCH":1894,"BSTAR":0.00057537076,"MEAN_MOTION_DOT":0.00043515,"MEAN_MOTION_DDOT":0},{"OBJECT_NAME":"ISS OBJECT XT","OBJECT_ID":"1998-067XT","EPOCH":"2026-04-03T06:49:33.278880","MEAN_MOTION":15.79389654,"ECCENTRICITY":0.00069383,"INCLINATION":51.622,"RA_OF_ASC_NODE":299.3474,"ARG_OF_PERICENTER":241.0922,"MEAN_ANOMALY":118.9383,"EPHEMERIS_TYPE":0,"CLASSIFICATION_TYPE":"U","NORAD_CAT_ID":66907,"ELEMENT_SET_NO":999,"REV_AT_EPOCH":1905,"BSTAR":0.0018784409,"MEAN_MOTION_DOT":0.00361691,"MEAN_MOTION_DDOT":0},{"OBJECT_NAME":"ISS OBJECT XU","OBJECT_ID":"1998-067XU","EPOCH":"2026-04-03T06:42:40.775904","MEAN_MOTION":15.79720595,"ECCENTRICITY":0.00070957,"INCLINATION":51.6221,"RA_OF_ASC_NODE":299.3108,"ARG_OF_PERICENTER":240.6488,"MEAN_ANOMALY":119.3805,"EPHEMERIS_TYPE":0,"CLASSIFICATION_TYPE":"U","NORAD_CAT_ID":66908,"ELEMENT_SET_NO":999,"REV_AT_EPOCH":1905,"BSTAR":0.0019241851,"MEAN_MOTION_DOT":0.00376814,"MEAN_MOTION_DDOT":0},{"OBJECT_NAME":"SILVERSAT","OBJECT_ID":"1998-067XV","EPOCH":"2026-04-02T13:59:38.023008","MEAN_MOTION":15.85656241,"ECCENTRICITY":0.00084842,"INCLINATION":51.6187,"RA_OF_ASC_NODE":301.3924,"ARG_OF_PERICENTER":244.3474,"MEAN_ANOMALY":115.6654,"EPHEMERIS_TYPE":0,"CLASSIFICATION_TYPE":"U","NORAD_CAT_ID":66909,"ELEMENT_SET_NO":999,"REV_AT_EPOCH":1896,"BSTAR":0.0018698813,"MEAN_MOTION_DOT":0.00490335,"MEAN_MOTION_DDOT":0},{"OBJECT_NAME":"ISS OBJECT XW","OBJECT_ID":"1998-067XW","EPOCH":"2026-04-03T07:08:04.531488","MEAN_MOTION":15.77493204,"ECCENTRICITY":0.00072905,"INCLINATION":51.6203,"RA_OF_ASC_NODE":299.4256,"ARG_OF_PERICENTER":236.8734,"MEAN_ANOMALY":123.1567,"EPHEMERIS_TYPE":0,"CLASSIFICATION_TYPE":"U","NORAD_CAT_ID":66910,"ELEMENT_SET_NO":999,"REV_AT_EPOCH":1905,"BSTAR":0.001727107,"MEAN_MOTION_DOT":0.00303275,"MEAN_MOTION_DDOT":0},{"OBJECT_NAME":"ISS OBJECT XX","OBJECT_ID":"1998-067XX","EPOCH":"2026-04-02T22:34:23.452608","MEAN_MOTION":15.9551379,"ECCENTRICITY":0.00106649,"INCLINATION":51.6159,"RA_OF_ASC_NODE":297.7328,"ARG_OF_PERICENTER":251.8408,"MEAN_ANOMALY":108.1439,"EPHEMERIS_TYPE":0,"CLASSIFICATION_TYPE":"U","NORAD_CAT_ID":66911,"ELEMENT_SET_NO":999,"REV_AT_EPOCH":1903,"BSTAR":0.0027184661,"MEAN_MOTION_DOT":0.01110416,"MEAN_MOTION_DDOT":0.00058671647},{"OBJECT_NAME":"ISS OBJECT XY","OBJECT_ID":"1998-067XY","EPOCH":"2026-04-03T06:35:38.536512","MEAN_MOTION":15.69079416,"ECCENTRICITY":0.00047952,"INCLINATION":51.6253,"RA_OF_ASC_NODE":302.3137,"ARG_OF_PERICENTER":234.0576,"MEAN_ANOMALY":125.9976,"EPHEMERIS_TYPE":0,"CLASSIFICATION_TYPE":"U","NORAD_CAT_ID":66912,"ELEMENT_SET_NO":999,"REV_AT_EPOCH":1900,"BSTAR":0.0013566212,"MEAN_MOTION_DOT":0.00163051,"MEAN_MOTION_DDOT":0},{"OBJECT_NAME":"KNACKSAT-2","OBJECT_ID":"1998-067XZ","EPOCH":"2026-04-02T22:12:24.594624","MEAN_MOTION":15.53933498,"ECCENTRICITY":0.00104217,"INCLINATION":51.631,"RA_OF_ASC_NODE":311.2469,"ARG_OF_PERICENTER":275.3642,"MEAN_ANOMALY":84.6159,"EPHEMERIS_TYPE":0,"CLASSIFICATION_TYPE":"U","NORAD_CAT_ID":67683,"ELEMENT_SET_NO":999,"REV_AT_EPOCH":855,"BSTAR":0.001026702,"MEAN_MOTION_DOT":0.00067722,"MEAN_MOTION_DDOT":0},{"OBJECT_NAME":"CORAL","OBJECT_ID":"1998-067YA","EPOCH":"2026-04-02T23:18:30.993120","MEAN_MOTION":15.58700862,"ECCENTRICITY":0.0013373,"INCLINATION":51.6286,"RA_OF_ASC_NODE":310.0532,"ARG_OF_PERICENTER":265.005,"MEAN_ANOMALY":94.9416,"EPHEMERIS_TYPE":0,"CLASSIFICATION_TYPE":"U","NORAD_CAT_ID":67684,"ELEMENT_SET_NO":999,"REV_AT_EPOCH":857,"BSTAR":0.0018271479,"MEAN_MOTION_DOT":0.00146011,"MEAN_MOTION_DDOT":0},{"OBJECT_NAME":"GXIBA-1","OBJECT_ID":"1998-067YB","EPOCH":"2026-04-02T23:27:52.879104","MEAN_MOTION":15.5454432,"ECCENTRICITY":0.00123409,"INCLINATION":51.6304,"RA_OF_ASC_NODE":310.8473,"ARG_OF_PERICENTER":271.8778,"MEAN_ANOMALY":88.0799,"EPHEMERIS_TYPE":0,"CLASSIFICATION_TYPE":"U","NORAD_CAT_ID":67685,"ELEMENT_SET_NO":999,"REV_AT_EPOCH":856,"BSTAR":0.0010703359,"MEAN_MOTION_DOT":0.00072331,"MEAN_MOTION_DDOT":0},{"OBJECT_NAME":"UITMSAT-2","OBJECT_ID":"1998-067YC","EPOCH":"2026-04-02T15:19:28.045056","MEAN_MOTION":15.55557558,"ECCENTRICITY":0.00093777,"INCLINATION":51.6305,"RA_OF_ASC_NODE":312.3353,"ARG_OF_PERICENTER":244.7057,"MEAN_ANOMALY":115.2963,"EPHEMERIS_TYPE":0,"CLASSIFICATION_TYPE":"U","NORAD_CAT_ID":67686,"ELEMENT_SET_NO":999,"REV_AT_EPOCH":851,"BSTAR":0.00099291359,"MEAN_MOTION_DOT":0.00069503,"MEAN_MOTION_DDOT":0},{"OBJECT_NAME":"HMU-SAT2","OBJECT_ID":"1998-067YD","EPOCH":"2026-04-02T22:03:37.580544","MEAN_MOTION":15.54267047,"ECCENTRICITY":0.00088786,"INCLINATION":51.6311,"RA_OF_ASC_NODE":311.2095,"ARG_OF_PERICENTER":248.0698,"MEAN_ANOMALY":111.935,"EPHEMERIS_TYPE":0,"CLASSIFICATION_TYPE":"U","NORAD_CAT_ID":67687,"ELEMENT_SET_NO":999,"REV_AT_EPOCH":847,"BSTAR":0.0010897704,"MEAN_MOTION_DOT":0.00072798,"MEAN_MOTION_DDOT":0},{"OBJECT_NAME":"LEOPARD","OBJECT_ID":"1998-067YE","EPOCH":"2026-04-03T00:46:20.051328","MEAN_MOTION":15.55151529,"ECCENTRICITY":0.00091814,"INCLINATION":51.6305,"RA_OF_ASC_NODE":310.4638,"ARG_OF_PERICENTER":245.8702,"MEAN_ANOMALY":114.133,"EPHEMERIS_TYPE":0,"CLASSIFICATION_TYPE":"U","NORAD_CAT_ID":67688,"ELEMENT_SET_NO":999,"REV_AT_EPOCH":849,"BSTAR":0.0012198426,"MEAN_MOTION_DOT":0.00084376,"MEAN_MOTION_DDOT":0},{"OBJECT_NAME":"CREW DRAGON 12","OBJECT_ID":"2026-031A","EPOCH":"2026-04-03T02:25:58.213344","MEAN_MOTION":15.48735493,"ECCENTRICITY":0.00062367,"INCLINATION":51.6327,"RA_OF_ASC_NODE":311.671,"ARG_OF_PERICENTER":265.7481,"MEAN_ANOMALY":94.2795,"EPHEMERIS_TYPE":0,"CLASSIFICATION_TYPE":"U","NORAD_CAT_ID":67796,"ELEMENT_SET_NO":999,"REV_AT_EPOCH":56008,"BSTAR":0.00022784187,"MEAN_MOTION_DOT":0.00012012,"MEAN_MOTION_DDOT":0},{"OBJECT_NAME":"PROGRESS-MS 33","OBJECT_ID":"2026-058A","EPOCH":"2026-04-03T02:25:58.213344","MEAN_MOTION":15.48735493,"ECCENTRICITY":0.00062367,"INCLINATION":51.6327,"RA_OF_ASC_NODE":311.671,"ARG_OF_PERICENTER":265.7481,"MEAN_ANOMALY":94.2795,"EPHEMERIS_TYPE":0,"CLASSIFICATION_TYPE":"U","NORAD_CAT_ID":68319,"ELEMENT_SET_NO":999,"REV_AT_EPOCH":125,"BSTAR":0.00022784187,"MEAN_MOTION_DOT":0.00012012,"MEAN_MOTION_DDOT":0}]
